IRIDIUM 150             
1 43257U 18030J   24157.92740037 -.00000043  00000+0 -22278-4 0  9997
2 43257  86.3987 240.2189 0002227 103.3730 256.7714 14.34217479323912
IRIDIUM 143             
1 43258U 18030K   24157.48976214 -.00000003  00000+0 -80918-5 0  9999
2 43258  86.3991 240.4651 0002380 103.8847 256.2614 14.34217779323780
IRIDIUM 161             
1 43478U 18047C   24157.95299395  .00000525  00000+0  15018-3 0  9995
2 43478  86.4506  38.2413 0002421  86.5328 273.6150 14.43282971318220
IRIDIUM 152             
1 43479U 18047D   24157.95085937 -.00000039  00000+0 -20837-4 0  9999
2 43479  86.3979  38.1015 0002057  85.5479 274.5952 14.34217390316245
IRIDIUM 147             
1 43480U 18047E   24157.95720150  .00000188  00000+0  60028-4 0  9993
2 43480  86.3982  38.0911 0002113  83.0110 277.1326 14.34218458316243
IRIDIUM 110             
1 43481U 18047F   24157.96354371  .00000123  00000+0  36724-4 0  9998
2 43481  86.3985  38.1610 0001970  75.1570 284.9844 14.34218205316236
IRIDIUM 162             
1 43482U 18047G   24157.94669327  .00000516  00000+0  14744-3 0  9990
2 43482  86.4507  38.1441 0002139  84.5488 275.5957 14.43284860318211
IRIDIUM 160             
1 43569U 18061A   24157.83961203  .00000442  00000+0  15062-3 0  9990
2 43569  86.3979   6.5952 0002414  78.1862 281.9605 14.34220231307116
